NORAD_CAT_ID,OBJECT_NAME,OBJECT_TYPE,EPOCH,MEAN_MOTION,ECCENTRICITY,INCLINATION,RA_OF_ASC_NODE,ARG_OF_PERICENTER,MEAN_ANOMALY,BSTAR,MEAN_MOTION_DOT,MEAN_MOTION_DDOT,TLE_LINE0,TLE_LINE1,TLE_LINE2,SEMIMAJOR_AXIS,PERIOD,APOGEE,PERIGEE,DECAYED
53931.0,STARLINK-5015,PAYLOAD,2023-11-05 08:30:51,15.08883434,9.29e-05,53.2162,178.535,87.1144,272.9955,0.0015535,0.00024552,0.0,0 STARLINK-5015,1 53931U 22119AX  23309.35476731  .00024552  00000-0  15535-2 0  9998,2 53931  53.2162 178.5350 0000929  87.1144 272.9955 15.08883434 62490,6917.748,95.435,540.255,538.97,0.0
53931.0,STARLINK-5015,PAYLOAD,2023-11-05 19:38:32,15.08882692,0.0001525,53.2159,176.4529,86.3902,273.7265,0.00091114,0.00014259,0.0,0 STARLINK-5015,1 53931U 22119AX  23309.81843728  .00014259  00000-0  91114-3 0  9994,2 53931  53.2159 176.4529 0001525  86.3902 273.7265 15.08882692 62563,6917.75,95.435,540.67,538.56,0.0
53931.0,STARLINK-5015,PAYLOAD,2023-11-05 21:13:55,15.08901951,0.0001333,53.2157,176.1541,81.5004,278.6139,0.0016246,0.00025706,0.0,0 STARLINK-5015,1 53931U 22119AX  23309.88467343  .00025706  00000-0  16246-2 0  9997,2 53931  53.2157 176.1541 0001333  81.5004 278.6139 15.08901951 62990,6917.691,95.434,540.478,538.634,0.0
53931.0,STARLINK-5015,PAYLOAD,2023-11-05 22:49:18,15.08912666,0.0001354,53.2159,175.8575,79.1201,280.9943,0.0020028,0.00031794,0.0,0 STARLINK-5015,1 53931U 22119AX  23309.95091012  .00031794  00000-0  20028-2 0  9998,2 53931  53.2159 175.8575 0001354  79.1201 280.9943 15.08912666 62589,6917.658,95.433,540.46,538.587,0.0
53931.0,STARLINK-5015,PAYLOAD,2023-11-06 08:21:37,15.08897699,0.0001779,53.2158,174.0744,64.1168,296.0008,0.0020174,0.00032016,0.0,0 STARLINK-5015,1 53931U 22119AX  23310.34834603  .00032016  00000-0  20174-2 0  9994,2 53931  53.2158 174.0744 0001779  64.1168 296.0008 15.08897699 62649,6917.704,95.434,540.8,538.338,0.0
53931.0,STARLINK-5015,PAYLOAD,2023-11-06 19:29:19,15.08820124,9.02e-05,53.216,171.9925,77.0346,283.0746,0.00075974,0.00011817,0.0,0 STARLINK-5015,1 53931U 22119AX  23310.81203356  .00011817  00000-0  75974-3 0  9996,2 53931  53.2160 171.9925 0000902  77.0346 283.0746 15.08820124 62719,6917.941,95.439,540.43,539.182,0.0
53931.0,STARLINK-5015,PAYLOAD,2023-11-06 21:04:43,15.08783298,0.0001248,53.2159,171.6946,79.0181,281.0952,-0.0021541,-0.00034354,0.0,0 STARLINK-5015,1 53931U 22119AX  23310.87827935 -.00034354  00000-0 -21541-2 0  9990,2 53931  53.2159 171.6946 0001248  79.0181 281.0952 15.08783298 63145,6918.054,95.441,540.782,539.055,0.0
53931.0,STARLINK-5015,PAYLOAD,2023-11-07 00:15:30,15.08774244,0.0001055,53.2157,171.1002,72.6748,287.436,-0.0010777,-0.00017367,0.0,0 STARLINK-5015,1 53931U 22119AX  23311.01076632 -.00017367  00000-0 -10777-2 0  9991,2 53931  53.2157 171.1002 0001055  72.6748 287.4360 15.08774244 62744,6918.081,95.442,540.676,539.217,0.0
53931.0,STARLINK-5015,PAYLOAD,2023-11-07 08:12:27,15.08798786,0.0001211,53.2155,169.6179,52.2069,307.9032,0.003098,0.00049306,0.0,0 STARLINK-5015,1 53931U 22119AX  23311.34198197  .00049306  00000-0  30980-2 0  9992,2 53931  53.2155 169.6179 0001211  52.2069 307.9032 15.08798786 62799,6918.006,95.44,540.709,539.034,0.0
53931.0,STARLINK-5015,PAYLOAD,2023-11-07 19:20:09,15.08820495,4.49e-05,53.2156,167.5329,53.7327,306.3707,0.0015831,0.00024983,0.0,0 STARLINK-5015,1 53931U 22119AX  23311.80566825  .00024983  00000-0  15831-2 0  9992,2 53931  53.2156 167.5329 0000449  53.7327 306.3707 15.08820495 62862,6917.94,95.439,540.116,539.494,0.0
53931.0,STARLINK-5015,PAYLOAD,2023-11-07 20:55:33,15.08829662,0.0001117,53.2161,167.2372,59.5264,300.5838,0.0020995,0.00033274,0.0,0 STARLINK-5015,1 53931U 22119AX  23311.87191069  .00033274  00000-0  20995-2 0  9993,2 53931  53.2161 167.2372 0001117  59.5264 300.5838 15.08829662 62877,6917.912,95.438,540.55,539.004,0.0
53931.0,STARLINK-5015,PAYLOAD,2023-11-08 20:46:19,15.08871408,0.0001264,53.2161,162.7756,66.5429,293.5696,0.0013609,0.00021456,0.0,0 STARLINK-5015,1 53931U 22119AX  23312.86550320  .00021456  00000-0  13609-2 0  9995,2 53931  53.2161 162.7756 0001264  66.5429 293.5696 15.08871408 63023,6917.784,95.436,540.524,538.775,0.0
53931.0,STARLINK-5015,PAYLOAD,2023-11-09 14:15:33,15.08860865,0.0001133,53.2166,159.5086,41.5189,318.5889,0.00074697,0.00011627,0.0,0 STARLINK-5015,1 53931U 22119AX  23313.59413653  .00011627  00000-0  74697-3 0  9997,2 53931  53.2166 159.5086 0001133  41.5189 318.5889 15.08860865 63554,6917.817,95.436,540.465,538.898,0.0
53931.0,STARLINK-5015,PAYLOAD,2023-11-09 17:26:19,15.08863899,0.0001223,53.2172,158.9101,55.9881,304.1227,0.00020307,2.948e-05,0.0,0 STARLINK-5015,1 53931U 22119AX  23313.72661391  .00002948  00000-0  20307-3 0  9991,2 53931  53.2172 158.9101 0001223  55.9881 304.1227 15.08863899 63153,6917.807,95.436,540.518,538.826,0.0
53931.0,STARLINK-5015,PAYLOAD,2023-11-09 20:37:05,15.08861014,0.0001216,53.2166,158.3146,76.2181,283.8946,0.00032661,4.917e-05,0.0,0 STARLINK-5015,1 53931U 22119AX  23313.85909245  .00004917  00000-0  32661-3 0  9992,2 53931  53.2166 158.3146 0001216  76.2181 283.8946 15.08861014 63596,6917.816,95.436,540.522,538.84,0.0
53931.0,STARLINK-5015,PAYLOAD,2023-11-09 23:47:51,15.08862098,0.0001206,53.2164,157.7193,75.828,284.2846,0.00031656,4.757e-05,0.0,0 STARLINK-5015,1 53931U 22119AX  23313.99157067  .00004757  00000-0  31656-3 0  9999,2 53931  53.2164 157.7193 0001206  75.8280 284.2846 15.08862098 63613,6917.813,95.436,540.512,538.844,0.0
53931.0,STARLINK-5015,PAYLOAD,2023-11-10 20:27:52,15.08855489,0.0001256,53.2157,153.8514,75.2455,284.8676,1.1786e-05,-1e-06,0.0,0 STARLINK-5015,1 53931U 22119AX  23314.85268586 -.00000100  00000-0  11786-4 0  9996,2 53931  53.2157 153.8514 0001256  75.2455 284.8676 15.08855489 63323,6917.833,95.437,540.567,538.829,0.0
53931.0,STARLINK-5015,PAYLOAD,2023-11-11 20:18:39,15.0884276,0.0001259,53.2167,149.3925,81.3696,278.7439,1.4122e-05,-6.3e-07,0.0,0 STARLINK-5015,1 53931U 22119AX  23315.84629201 -.00000063  00000-0  14122-4 0  9996,2 53931  53.2167 149.3925 0001259  81.3696 278.7439 15.08842760 63471,6917.872,95.437,540.608,538.866,0.0
53931.0,STARLINK-5015,PAYLOAD,2023-11-11 21:54:02,15.08841274,0.0001263,53.2167,149.0952,81.2849,278.8286,-5.6269e-06,-3.77e-06,0.0,0 STARLINK-5015,1 53931U 22119AX  23315.91253238 -.00000377  00000-0 -56269-5 0  9995,2 53931  53.2167 149.0952 0001263  81.2849 278.8286 15.08841274 63900,6917.876,95.437,540.615,538.868,0.0
53931.0,STARLINK-5015,PAYLOAD,2023-11-12 12:12:31,15.08838787,0.0001351,53.2176,146.4203,88.4573,271.6574,2.5976e-05,1.26e-06,0.0,0 STARLINK-5015,1 53931U 22119AX  23316.50869317  .00000126  00000-0  25976-4 0  9992,2 53931  53.2176 146.4203 0001351  88.4573 271.6574 15.08838787 63996,6917.884,95.438,540.684,538.814,0.0
53931.0,STARLINK-5015,PAYLOAD,2023-11-12 20:09:26,15.08839127,0.0001349,53.2175,144.9335,87.5874,272.5273,2.8319e-05,1.63e-06,0.0,0 STARLINK-5015,1 53931U 22119AX  23316.83989276  .00000163  00000-0  28319-4 0  9990,2 53931  53.2175 144.9335 0001349  87.5874 272.5273 15.08839127 64047,6917.883,95.438,540.681,538.815,0.0
53931.0,STARLINK-5015,PAYLOAD,2023-11-13 21:35:36,15.08839681,0.0001334,53.2175,140.1755,91.1558,268.9587,6.9816e-05,8.23e-06,0.0,0 STARLINK-5015,1 53931U 22119AX  23317.89973230  .00000823  00000-0  69816-4 0  9990,2 53931  53.2175 140.1755 0001334  91.1558 268.9587 15.08839681 64205,6917.881,95.438,540.669,538.824,0.0
53931.0,STARLINK-5015,PAYLOAD,2023-11-14 11:54:05,15.08837873,0.0001332,53.217,137.4988,87.6312,272.4833,6.501e-05,7.47e-06,0.0,0 STARLINK-5015,1 53931U 22119AX  23318.49589416  .00000747  00000-0  65010-4 0  9993,2 53931  53.2170 137.4988 0001332  87.6312 272.4833 15.08837873 64297,6917.887,95.438,540.673,538.83,0.0
53931.0,STARLINK-5015,PAYLOAD,2023-11-15 19:41:47,15.08843354,0.0001359,53.216,131.5508,89.1246,270.9902,7.8951e-05,9.69e-06,0.0,0 STARLINK-5015,1 53931U 22119AX  23319.82068861  .00000969  00000-0  78951-4 0  9991,2 53931  53.2160 131.5508 0001359  89.1246 270.9902 15.08843354 64078,6917.87,95.437,540.675,538.795,0.0
53931.0,STARLINK-5015,PAYLOAD,2023-11-15 21:17:10,15.0884348,0.0001361,53.216,131.2535,88.8742,271.2406,7.929e-05,9.74e-06,0.0,0 STARLINK-5015,1 53931U 22119AX  23319.88692851  .00000974  00000-0  79290-4 0  9992,2 53931  53.2160 131.2535 0001361  88.8742 271.2406 15.08843480 64506,6917.87,95.437,540.676,538.793,0.0
53931.0,STARLINK-5015,PAYLOAD,2023-11-16 21:07:57,15.08842168,0.0001403,53.2168,126.7929,90.1699,269.9454,2.6077e-05,1.27e-06,0.0,0 STARLINK-5015,1 53931U 22119AX  23320.88052875  .00000127  00000-0  26077-4 0  9995,2 53931  53.2168 126.7929 0001403  90.1699 269.9454 15.08842168 64659,6917.874,95.437,540.709,538.768,0.0
53931.0,STARLINK-5015,PAYLOAD,2023-11-17 11:26:26,15.08835921,0.0001405,53.2159,124.1162,90.0307,270.0846,-1.3961e-05,-5.1e-06,0.0,0 STARLINK-5015,1 53931U 22119AX  23321.47669405 -.00000510  00000-0 -13961-4 0  9990,2 53931  53.2159 124.1162 0001405  90.0307 270.0846 15.08835921 64328,6917.893,95.438,540.73,538.786,0.0
53931.0,STARLINK-5015,PAYLOAD,2023-11-17 17:47:58,15.08835654,0.0001418,53.2163,122.9264,91.3077,268.8077,-1.3839e-05,-5.08e-06,0.0,0 STARLINK-5015,1 53931U 22119AX  23321.74165452 -.00000508  00000-0 -13839-4 0  9994,2 53931  53.2163 122.9264 0001418  91.3077 268.8077 15.08835654 64788,6917.894,95.438,540.74,538.778,0.0
53931.0,STARLINK-5015,PAYLOAD,2023-11-18 09:41:50,15.08834675,0.0001428,53.2161,119.9528,91.0082,269.1074,-1.9734e-05,-6.02e-06,0.0,0 STARLINK-5015,1 53931U 22119AX  23322.40405730 -.00000602  00000-0 -19734-4 0  9999,2 53931  53.2161 119.9528 0001428  91.0082 269.1074 15.08834675 64883,6917.897,95.438,540.75,538.774,0.0
53931.0,STARLINK-5015,PAYLOAD,2023-11-19 03:11:05,15.08833051,0.0001743,53.2196,116.683,92.5931,267.5261,3.3127e-05,2.39e-06,0.0,0 STARLINK-5015,1 53931U 22119AX  23323.13269925  .00000239  00000-0  33127-4 0  9990,2 53931  53.2196 116.6830 0001743  92.5931 267.5261 15.08833051 64573,6917.902,95.438,540.972,538.561,0.0
